[{"OBJECT_NAME":"SITRO-AIS 8 (ANOKHIN)","OBJECT_ID":"2023-091AD","EPOCH":"2026-03-09T23:44:40.058592","MEAN_MOTION":15.29359179,"ECCENTRICITY":0.0012509,"INCLINATION":97.5169,"RA_OF_ASC_NODE":133.2823,"ARG_OF_PERICENTER":92.0171,"MEAN_ANOMALY":268.2501,"EPHEMERIS_TYPE":0,"CLASSIFICATION_TYPE":"U","NORAD_CAT_ID":57193,"ELEMENT_SET_NO":999,"REV_AT_EPOCH":14927,"BSTAR":0.00064982524,"MEAN_MOTION_DOT":0.00018494,"MEAN_MOTION_DDOT":0},{"OBJECT_NAME":"STARLINK-31100","OBJECT_ID":"2024-002K","EPOCH":"2026-03-09T16:07:57.831168","MEAN_MOTION":15.30196314,"ECCENTRICITY":0.00010453,"INCLINATION":53.1594,"RA_OF_ASC_NODE":229.9438,"ARG_OF_PERICENTER":90.8021,"MEAN_ANOMALY":269.31,"EPHEMERIS_TYPE":0,"CLASSIFICATION_TYPE":"U","NORAD_CAT_ID":58714,"ELEMENT_SET_NO":999,"REV_AT_EPOCH":12201,"BSTAR":8.36718e-7,"MEAN_MOTION_DOT":-3.34e-6,"MEAN_MOTION_DDOT":0}]
